STARLINK-1221
1 45227U 20012BB  26090.61952474  .00021561  00000+0  49353-3 0  9991
2 45227  53.0656 165.6333 0003726  76.6958 283.4463 15.42755853340094
STARLINK-2298
1 48022U 21024AX  26090.83335647  .00102188  00000+0  23163-2 0  9997
2 48022  53.1257 228.9506 0000965  77.1484  62.2442 15.42291164  5824
STARLINK-36738
1 67865U 26034R   26090.83335647 -.01860405  00000+0 -46814-1 0  9992
2 67865  53.1597 101.5960 0001399  83.6322 253.3555 15.42629913  6008
STARLINK-36780
1 67866U 26034S   26090.83335647 -.01832354  00000+0 -46915-1 0  9997
2 67866  53.1596 101.5496 0001338  79.6680 280.6762 15.42067408  6005
STARLINK-36761
1 67867U 26034T   26090.83335647 -.01852970  00000+0 -47032-1 0  9995
2 67867  53.1601 101.5191 0000978  94.6033 280.0660 15.42364085  6016
STARLINK-36762
1 67868U 26034U   26090.83335647 -.01852784  00000+0 -46921-1 0  9995
2 67868  53.1596 101.5755 0001131  90.9967 255.7188 15.42429684  6014
STARLINK-36783
1 67873U 26034Z   26090.83335647 -.01870173  00000+0 -47283-1 0  9995
2 67873  53.1592 101.5056 0001244  76.8293 304.2202 15.42508481  5637
